{
  "type": "FeatureCollection",
  "features": [
    {
      "type": "Feature",
      "properties": {
        "norad_id": 30565,
        "name": "FENGYUN 1C DEB",
        "group": "fengyun-1c-debris",
        "lat": -56.11693990227595,
        "lon": -125.29312170361344,
        "alt_km": 784.3299561117565,
        "timestamp": "2025-12-17T23:38:07.131365+00:00",
        "meta_object_name": "FENGYUN 1C DEB",
        "meta_object_id": "1999-025ALF",
        "meta_epoch": "2025-12-14T14:17:13.563168",
        "meta_mean_motion": 14.09950974,
        "meta_eccentricity": 0.01431996,
        "meta_inclination": 98.4595,
        "meta_ra_of_asc_node": 218.7147,
        "meta_arg_of_pericenter": 350.7343,
        "meta_mean_anomaly": 38.2595,
        "meta_ephemeris_type": 0,
        "meta_classification_type": "U",
        "meta_norad_cat_id": 30565,
        "meta_element_set_no": 999,
        "meta_rev_at_epoch": 95953,
        "meta_bstar": 0.0017219835,
        "meta_mean_motion_dot": 3.298e-05,
        "meta_mean_motion_ddot": 0,
        "tle_line1": "1 30565U 99025ALF 25348.59529587  .00003298  00000+0  17220-2 0  9991",
        "tle_line2": "2 30565  98.4595 218.7147 0143199 350.7343  38.2595 14.09950974959534"
      },
      "geometry": {
        "type": "Point",
        "coordinates": [
          -125.29312170361344,
          -56.11693990227595
        ]
      }
    },
    {
      "type": "Feature",
      "properties": {
        "norad_id": 30566,
        "name": "FENGYUN 1C DEB",
        "group": "fengyun-1c-debris",
        "lat": -77.78409902370491,
        "lon": 89.25306272381941,
        "alt_km": 877.7591403893621,
        "timestamp": "2025-12-17T23:38:07.131375+00:00",
        "meta_object_name": "FENGYUN 1C DEB",
        "meta_object_id": "1999-025ALG",
        "meta_epoch": "2025-12-17T02:03:15.509952",
        "meta_mean_motion": 14.11707723,
        "meta_eccentricity": 0.00684375,
        "meta_inclination": 99.2169,
        "meta_ra_of_asc_node": 39.7408,
        "meta_arg_of_pericenter": 170.1962,
        "meta_mean_anomaly": 219.7298,
        "meta_ephemeris_type": 0,
        "meta_classification_type": "U",
        "meta_norad_cat_id": 30566,
        "meta_element_set_no": 999,
        "meta_rev_at_epoch": 96444,
        "meta_bstar": 0.0011515813,
        "meta_mean_motion_dot": 2.097e-05,
        "meta_mean_motion_ddot": 0,
        "tle_line1": "1 30566U 99025ALG 25351.08559618  .00002097  00000+0  11516-2 0  9996",
        "tle_line2": "2 30566  99.2169  39.7408 0068437 170.1962 219.7298 14.11707723964441"
      },
      "geometry": {
        "type": "Point",
        "coordinates": [
          89.25306272381941,
          -77.78409902370491
        ]
      }
    },
    {
      "type": "Feature",
      "properties": {
        "norad_id": 30567,
        "name": "FENGYUN 1C DEB",
        "group": "fengyun-1c-debris",
        "lat": -1.8625063150558123,
        "lon": 162.24631739730404,
        "alt_km": 787.9708008611588,
        "timestamp": "2025-12-17T23:38:07.131385+00:00",
        "meta_object_name": "FENGYUN 1C DEB",
        "meta_object_id": "1999-025ALH",
        "meta_epoch": "2025-12-17T11:34:44.808384",
        "meta_mean_motion": 14.08903385,
        "meta_eccentricity": 0.01089609,
        "meta_inclination": 98.7755,
        "meta_ra_of_asc_node": 342.045,
        "meta_arg_of_pericenter": 175.8966,
        "meta_mean_anomaly": 339.2275,
        "meta_ephemeris_type": 0,
        "meta_classification_type": "U",
        "meta_norad_cat_id": 30567,
        "meta_element_set_no": 999,
        "meta_rev_at_epoch": 96840,
        "meta_bstar": 0.00016770634,
        "meta_mean_motion_dot": 2.64e-06,
        "meta_mean_motion_ddot": 0,
        "tle_line1": "1 30567U 99025ALH 25351.48246306  .00000264  00000+0  16771-3 0  9991",
        "tle_line2": "2 30567  98.7755 342.0450 0108960 175.8966 339.2275 14.08903385968407"
      },
      "geometry": {
        "type": "Point",
        "coordinates": [
          162.24631739730404,
          -1.8625063150558123
        ]
      }
    },
    {
      "type": "Feature",
      "properties": {
        "norad_id": 30568,
        "name": "FENGYUN 1C DEB",
        "group": "fengyun-1c-debris",
        "lat": -38.35959541172447,
        "lon": -24.623833381867115,
        "alt_km": 706.0754461808665,
        "timestamp": "2025-12-17T23:38:07.131395+00:00",
        "meta_object_name": "FENGYUN 1C DEB",
        "meta_object_id": "1999-025ALJ",
        "meta_epoch": "2025-12-17T11:21:18.075168",
        "meta_mean_motion": 14.55283104,
        "meta_eccentricity": 0.00160957,
        "meta_inclination": 98.942,
        "meta_ra_of_asc_node": 161.9873,
        "meta_arg_of_pericenter": 180.3142,
        "meta_mean_anomaly": 239.233,
        "meta_ephemeris_type": 0,
        "meta_classification_type": "U",
        "meta_norad_cat_id": 30568,
        "meta_element_set_no": 999,
        "meta_rev_at_epoch": 97728,
        "meta_bstar": 0.0024386511,
        "meta_mean_motion_dot": 0.00010547,
        "meta_mean_motion_ddot": 0,
        "tle_line1": "1 30568U 99025ALJ 25351.47312587  .00010547  00000+0  24387-2 0  9992",
        "tle_line2": "2 30568  98.9420 161.9873 0016095 180.3142 239.2330 14.55283104977289"
      },
      "geometry": {
        "type": "Point",
        "coordinates": [
          -24.623833381867115,
          -38.35959541172447
        ]
      }
    },
    {
      "type": "Feature",
      "properties": {
        "norad_id": 30569,
        "name": "FENGYUN 1C DEB",
        "group": "fengyun-1c-debris",
        "lat": -37.12761980289351,
        "lon": -55.32185308636038,
        "alt_km": 658.5754225063474,
        "timestamp": "2025-12-17T23:38:07.131405+00:00",
        "meta_object_name": "FENGYUN 1C DEB",
        "meta_object_id": "1999-025ALK",
        "meta_epoch": "2025-12-17T07:59:16.569024",
        "meta_mean_motion": 14.7387117,
        "meta_eccentricity": 0.00060334,
        "meta_inclination": 98.7365,
        "meta_ra_of_asc_node": 130.6616,
        "meta_arg_of_pericenter": 72.7885,
        "meta_mean_anomaly": 287.3981,
        "meta_ephemeris_type": 0,
        "meta_classification_type": "U",
        "meta_norad_cat_id": 30569,
        "meta_element_set_no": 999,
        "meta_rev_at_epoch": 98274,
        "meta_bstar": 0.0026946996,
        "meta_mean_motion_dot": 0.00017649,
        "meta_mean_motion_ddot": 0,
        "tle_line1": "1 30569U 99025ALK 25351.33283066  .00017649  00000+0  26947-2 0  9991",
        "tle_line2": "2 30569  98.7365 130.6616 0006033  72.7885 287.3981 14.73871170982742"
      },
      "geometry": {
        "type": "Point",
        "coordinates": [
          -55.32185308636038,
          -37.12761980289351
        ]
      }
    },
    {
      "type": "Feature",
      "properties": {
        "norad_id": 30570,
        "name": "FENGYUN 1C DEB",
        "group": "fengyun-1c-debris",
        "lat": 49.19889554040807,
        "lon": 14.141996629584147,
        "alt_km": 861.7140918303057,
        "timestamp": "2025-12-17T23:38:07.131416+00:00",
        "meta_object_name": "FENGYUN 1C DEB",
        "meta_object_id": "1999-025ALL",
        "meta_epoch": "2025-12-17T15:29:59.386272",
        "meta_mean_motion": 14.14277358,
        "meta_eccentricity": 0.0035513,
        "meta_inclination": 98.7146,
        "meta_ra_of_asc_node": 24.0463,
        "meta_arg_of_pericenter": 197.8363,
        "meta_mean_anomaly": 287.5297,
        "meta_ephemeris_type": 0,
        "meta_classification_type": "U",
        "meta_norad_cat_id": 30570,
        "meta_element_set_no": 999,
        "meta_rev_at_epoch": 97067,
        "meta_bstar": 0.00040689517,
        "meta_mean_motion_dot": 7.39e-06,
        "meta_mean_motion_ddot": 0,
        "tle_line1": "1 30570U 99025ALL 25351.64582623  .00000739  00000+0  40690-3 0  9992",
        "tle_line2": "2 30570  98.7146  24.0463 0035513 197.8363 287.5297 14.14277358970676"
      },
      "geometry": {
        "type": "Point",
        "coordinates": [
          14.141996629584147,
          49.19889554040807
        ]
      }
    },
    {
      "type": "Feature",
      "properties": {
        "norad_id": 30571,
        "name": "FENGYUN 1C DEB",
        "group": "fengyun-1c-debris",
        "lat": -77.13678104092183,
        "lon": 60.34268263084604,
        "alt_km": 856.8761149079655,
        "timestamp": "2025-12-17T23:38:07.131426+00:00",
        "meta_object_name": "FENGYUN 1C DEB",
        "meta_object_id": "1999-025ALM",
        "meta_epoch": "2025-12-17T12:52:32.267712",
        "meta_mean_motion": 14.10700189,
        "meta_eccentricity": 0.00209604,
        "meta_inclination": 98.7307,
        "meta_ra_of_asc_node": 17.6136,
        "meta_arg_of_pericenter": 219.9042,
        "meta_mean_anomaly": 303.8531,
        "meta_ephemeris_type": 0,
        "meta_classification_type": "U",
        "meta_norad_cat_id": 30571,
        "meta_element_set_no": 999,
        "meta_rev_at_epoch": 96954,
        "meta_bstar": 0.00027426231,
        "meta_mean_motion_dot": 4.48e-06,
        "meta_mean_motion_ddot": 0,
        "tle_line1": "1 30571U 99025ALM 25351.53648458  .00000448  00000+0  27426-3 0  9999",
        "tle_line2": "2 30571  98.7307  17.6136 0020960 219.9042 303.8531 14.10700189969547"
      },
      "geometry": {
        "type": "Point",
        "coordinates": [
          60.34268263084604,
          -77.13678104092183
        ]
      }
    }
  ]
}